CELESTIS-02             
1 25160U 98007D   23018.85575137  .00000264  00000+0  17517-3 0  9998
2 25160 107.9902 340.5295 0060570 101.8898 326.3143 14.21687401293476
CELESTIS-03             
1 26034U 99070C   23019.09035309  .00062645  00000+0  21996-2 0  9995
2 26034  98.2983  52.7800 0009473 108.4598 251.7670 15.29129539253909
